1 76684U          19281.95138889  .00000000  00000-0  00000-0 0 00000
2 76684 097.6720 17.0120 0000000 000.0000 001.3960 15.01920000000000
1 76684U          19282.36180556  .00000000  00000-0  00000-0 0 00000
2 76684 097.6730 17.4160 0000000 000.0000 057.6460 15.01920000000000
1 76684U          19282.64236111  .00000000  00000-0  00000-0 0 00000
2 76684 097.6740 17.6930 0000000 000.0000 132.6460 15.01920000000000
1 76684U          19282.92361111  .00000000  00000-0  00000-0 0 00000
2 76684 097.6740 17.9700 0000000 000.0000 211.3970 15.01920000000000
1 76684U          19283.40555556  .00000000  00000-0  00000-0 0 00000
2 76684 097.6750 18.4450 0000000 000.0000 293.8970 15.01920000000000
1 76684U          19283.68888889  .00000000  00000-0  00000-0 0 00000
2 76684 097.6750 18.7240 0000000 000.0000 023.8970 15.01920000000000
1 76684U          19283.98472222  .00000000  00000-0  00000-0 0 00000
2 76684 097.6760 19.0160 0000000 000.0000 181.3970 15.01920000000000
1 76684U          19284.30000000  .00000000  00000-0  00000-0 0 00000
2 76684 097.6770 19.3270 0000000 000.0000 083.8970 15.01920000000000
1 76684U          19284.67986111  .00000000  00000-0  00000-0 0 00000
2 76684 097.6770 19.7010 0000000 000.0000 335.1480 15.01920000000000
1 76684U          19285.07916667  .00000000  00000-0  00000-0 0 00000
2 76684 097.6780 20.0950 0000000 000.0000 331.3980 15.01920000000000
1 76684U          19285.30208333  .00000000  00000-0  00000-0 0 00000
2 76684 097.6780 20.3140 0000000 000.0000 095.1480 15.01920000000000
1 76684U          19285.66458333  .00000000  00000-0  00000-0 0 00000
2 76684 097.6790 20.6720 0000000 000.0000 252.6480 15.01920000000000
1 76684U          19286.00347222  .00000000  00000-0  00000-0 0 00000
2 76684 097.6800 21.0060 0000000 000.0000 282.6490 15.01920000000000
1 76684U          19286.38541667  .00000000  00000-0  00000-0 0 00000
2 76684 097.6800 21.3820 0000000 000.0000 185.1490 15.01920000000000
1 76684U          19286.71250000  .00000000  00000-0  00000-0 0 00000
2 76684 097.6810 21.7050 0000000 000.0000 151.3990 15.01920000000000
1 76684U          19287.04375000  .00000000  00000-0  00000-0 0 00000
2 76684 097.6810 22.0310 0000000 000.0000 140.1490 15.01920000000000
1 76684U          19287.34930556  .00000000  00000-0  00000-0 0 00000
2 76684 097.6820 22.3320 0000000 000.0000 350.1500 15.01920000000000
1 76684U          19287.71805556  .00000000  00000-0  00000-0 0 00000
2 76684 097.6820 22.6960 0000000 000.0000 181.4000 15.01920000000000
1 76684U          19288.00416667  .00000000  00000-0  00000-0 0 00000
2 76684 097.6830 22.9780 0000000 000.0000 286.4000 15.01920000000000
1 76684U          19288.38541667  .00000000  00000-0  00000-0 0 00000
2 76684 097.6840 23.3540 0000000 000.0000 185.1500 15.01920000000000
1 76684U          19288.63333333  .00000000  00000-0  00000-0 0 00000
2 76684 097.6840 23.5980 0000000 000.0000 083.9010 15.01920000000000
1 76684U          19288.98819444  .00000000  00000-0  00000-0 0 00000
2 76684 097.6850 23.9480 0000000 000.0000 200.1510 15.01920000000000
1 76684U          19289.26875000  .00000000  00000-0  00000-0 0 00000
2 76684 097.6850 24.2240 0000000 000.0000 275.1510 15.01920000000000
1 76684U          19289.68958333  .00000000  00000-0  00000-0 0 00000
2 76684 097.6860 24.6390 0000000 000.0000 027.6510 15.01920000000000
1 76684U          19289.92638889  .00000000  00000-0  00000-0 0 00000
2 76684 097.6860 24.8730 0000000 000.0000 226.4020 15.01920000000000
1 76684U          19290.31458333  .00000000  00000-0  00000-0 0 00000
2 76684 097.6870 25.2550 0000000 000.0000 162.6520 15.01920000000000
1 76684U          19290.70277778  .00000000  00000-0  00000-0 0 00000
2 76684 097.6880 25.6380 0000000 000.0000 098.9020 15.01920000000000
1 76684U          19290.98263889  .00000000  00000-0  00000-0 0 00000
2 76684 097.6880 25.9140 0000000 000.0000 170.1530 15.01920000000000
1 76684U          19291.32500000  .00000000  00000-0  00000-0 0 00000
2 76684 097.6890 26.2510 0000000 000.0000 218.9030 15.01920000000000
1 76684U          19291.67708333  .00000000  00000-0  00000-0 0 00000
2 76684 097.6890 26.5980 0000000 000.0000 320.1530 15.01920000000000
1 76684U          19292.05625000  .00000000  00000-0  00000-0 0 00000
2 76684 097.6900 26.9720 0000000 000.0000 207.6540 15.01920000000000
1 76684U          19292.37500000  .00000000  00000-0  00000-0 0 00000
2 76684 097.6900 27.2860 0000000 000.0000 128.9040 15.01920000000000
1 76684U          19292.59375000  .00000000  00000-0  00000-0 0 00000
2 76684 097.6910 27.5020 0000000 000.0000 230.1540 15.01920000000000
1 76684U          19293.04375000  .00000000  00000-0  00000-0 0 00000
2 76684 097.6910 27.9450 0000000 000.0000 140.1540 15.01920000000000
1 76684U          19293.38263889  .00000000  00000-0  00000-0 0 00000
2 76684 097.6920 28.2790 0000000 000.0000 170.1550 15.01920000000000
1 76684U          19293.63263889  .00000000  00000-0  00000-0 0 00000
2 76684 097.6920 28.5260 0000000 000.0000 080.1550 15.01920000000000
1 76684U          19293.95902778  .00000000  00000-0  00000-0 0 00000
2 76684 097.6930 28.8480 0000000 000.0000 042.6550 15.01920000000000
1 76684U          19294.26111111  .00000000  00000-0  00000-0 0 00000
2 76684 097.6930 29.1450 0000000 000.0000 233.9060 15.01920000000000
1 76684U          19294.67430556  .00000000  00000-0  00000-0 0 00000
2 76684 097.6940 29.5530 0000000 000.0000 305.1560 15.01920000000000
1 76684U          19294.97708333  .00000000  00000-0  00000-0 0 00000
2 76684 097.6950 29.8510 0000000 000.0000 140.1560 15.01920000000000
1 76684U          19295.36666667  .00000000  00000-0  00000-0 0 00000
2 76684 097.6950 30.2350 0000000 000.0000 083.9070 15.01920000000000
1 76684U          19295.64375000  .00000000  00000-0  00000-0 0 00000
2 76684 097.6960 30.5080 0000000 000.0000 140.1570 15.01920000000000
1 76684U          19295.96666667  .00000000  00000-0  00000-0 0 00000
2 76684 097.6960 30.8270 0000000 000.0000 083.9070 15.01920000000000
1 76684U          19296.28750000  .00000000  00000-0  00000-0 0 00000
2 76684 097.6970 31.1430 0000000 000.0000 016.4080 15.01920000000000
1 76684U          19296.67152778  .00000000  00000-0  00000-0 0 00000
2 76684 097.6970 31.5210 0000000 000.0000 290.1580 15.01920000000000
1 76684U          19296.94305556  .00000000  00000-0  00000-0 0 00000
2 76684 097.6980 31.7890 0000000 000.0000 316.4080 15.01920000000000
1 76684U          19297.30347222  .00000000  00000-0  00000-0 0 00000
2 76684 097.6980 32.1440 0000000 000.0000 102.6590 15.01920000000000
1 76684U          19297.61250000  .00000000  00000-0  00000-0 0 00000
2 76684 097.6990 32.4490 0000000 000.0000 331.4090 15.01920000000000
1 76684U          19298.02430556  .00000000  00000-0  00000-0 0 00000
2 76684 097.6990 32.8550 0000000 000.0000 035.1590 15.01920000000000
1 76684U          19298.26805556  .00000000  00000-0  00000-0 0 00000
2 76684 097.7000 33.0950 0000000 000.0000 271.4100 15.01920000000000
1 76684U          19298.67916667  .00000000  00000-0  00000-0 0 00000
2 76684 097.7000 33.5000 0000000 000.0000 331.4100 15.01920000000000
1 76684U          19298.92777778  .00000000  00000-0  00000-0 0 00000
2 76684 097.7010 33.7460 0000000 000.0000 233.9100 15.01920000000000
1 76684U          19299.40555556  .00000000  00000-0  00000-0 0 00000
2 76684 097.7010 34.2170 0000000 000.0000 293.9110 15.01920000000000
1 76684U          19299.58541667  .00000000  00000-0  00000-0 0 00000
2 76684 097.7020 34.3940 0000000 000.0000 185.1610 15.01920000000000
1 76684U          19300.03680556  .00000000  00000-0  00000-0 0 00000
2 76684 097.7020 34.8390 0000000 000.0000 102.6620 15.01920000000000
1 76684U          19300.33958333  .00000000  00000-0  00000-0 0 00000
2 76684 097.7030 35.1370 0000000 000.0000 297.6620 15.01920000000000
1 76684U          19300.69722222  .00000000  00000-0  00000-0 0 00000
2 76684 097.7030 35.4900 0000000 000.0000 068.9120 15.01920000000000
1 76684U          19300.98263889  .00000000  00000-0  00000-0 0 00000
2 76684 097.7040 35.7710 0000000 000.0000 170.1630 15.01920000000000
1 76684U          19301.31666667  .00000000  00000-0  00000-0 0 00000
2 76684 097.7040 36.1000 0000000 000.0000 173.9130 15.01920000000000
1 76684U          19301.74583333  .00000000  00000-0  00000-0 0 00000
2 76684 097.7050 36.5230 0000000 000.0000 331.4140 15.01920000000000
1 76684U          19301.91875000  .00000000  00000-0  00000-0 0 00000
2 76684 097.7050 36.6940 0000000 000.0000 185.1640 15.01920000000000
1 76684U          19302.39236111  .00000000  00000-0  00000-0 0 00000
2 76684 097.7060 37.1610 0000000 000.0000 222.6640 15.01920000000000
1 76684U          19302.65347222  .00000000  00000-0  00000-0 0 00000
2 76684 097.7060 37.4180 0000000 000.0000 192.6650 15.01920000000000
1 76684U          19303.00000000  .00000000  00000-0  00000-0 0 00000
2 76684 097.7070 37.7600 0000000 000.0000 263.9150 15.01920000000000
1 76684U          19303.33333333  .00000000  00000-0  00000-0 0 00000
2 76684 097.7070 38.0880 0000000 000.0000 263.9150 15.01920000000000
1 76684U          19303.73402778  .00000000  00000-0  00000-0 0 00000
2 76684 097.7080 38.4830 0000000 000.0000 267.6660 15.01920000000000
1 76684U          19304.01527778  .00000000  00000-0  00000-0 0 00000
2 76684 097.7080 38.7610 0000000 000.0000 346.4160 15.01920000000000
1 76684U          19304.32291667  .00000000  00000-0  00000-0 0 00000
2 76684 097.7090 39.0640 0000000 000.0000 207.6670 15.01920000000000
1 76684U          19304.59583333  .00000000  00000-0  00000-0 0 00000
2 76684 097.7090 39.3330 0000000 000.0000 241.4170 15.01920000000000
1 76684U          19304.94305556  .00000000  00000-0  00000-0 0 00000
2 76684 097.7100 39.6750 0000000 000.0000 316.4170 15.01920000000000
1 76684U          19305.35000000  .00000000  00000-0  00000-0 0 00000
2 76684 097.7100 40.0760 0000000 000.0000 353.9180 15.01920000000000
